NORAD_CAT_ID,OBJECT_NAME,OBJECT_TYPE,EPOCH,MEAN_MOTION,ECCENTRICITY,INCLINATION,RA_OF_ASC_NODE,ARG_OF_PERICENTER,MEAN_ANOMALY,BSTAR,MEAN_MOTION_DOT,MEAN_MOTION_DDOT,TLE_LINE0,TLE_LINE1,TLE_LINE2,SEMIMAJOR_AXIS,PERIOD,APOGEE,PERIGEE,DECAYED
53906.0,STARLINK-5054,PAYLOAD,2023-01-12 00:10:23,15.0883955,0.0001204,53.2183,88.3798,82.5188,277.5941,-5.0358e-05,-1.089e-05,0.0,0 STARLINK-5054,1 53906U 22119W   23012.00721858 -.00001089  00000-0 -50358-4 0  9992,2 53906  53.2183  88.3798 0001204  82.5188 277.5941 15.08839550 17398,6917.882,95.438,540.58,538.914,0.0
53906.0,STARLINK-5054,PAYLOAD,2023-01-12 11:18:05,15.08836058,0.0001171,53.2181,86.2982,83.15299999999998,276.9595,5.226e-05,5.44e-06,0.0,0 STARLINK-5054,1 53906U 22119W   23012.47089834  .00000544  00000-0  52260-4 0  9991,2 53906  53.2181  86.2982 0001171  83.1530 276.9595 15.08836058 17881,6917.892,95.438,540.568,538.947,0.0
53906.0,STARLINK-5054,PAYLOAD,2023-01-13 11:08:52,15.0884209,0.0001224,53.2181,81.8373,82.6798,277.4333,8.6662e-05,1.092e-05,0.0,0 STARLINK-5054,1 53906U 22119W   23013.46449613  .00001092  00000-0  86662-4 0  9998,2 53906  53.2181  81.8373 0001224  82.6798 277.4333 15.08842090 17615,6917.874,95.437,540.586,538.8919999999999,0.0
53906.0,STARLINK-5054,PAYLOAD,2023-01-13 14:19:38,15.08844846,0.0001222,53.2181,81.2422,84.6683,275.4449,0.00010199,1.336e-05,0.0,0 STARLINK-5054,1 53906U 22119W   23013.59697348  .00001336  00000-0  10199-3 0  9994,2 53906  53.2181  81.2422 0001222  84.6683 275.4449 15.08844846 18053,6917.866,95.437,540.576,538.885,0.0
53906.0,STARLINK-5054,PAYLOAD,2023-01-15 04:28:55,15.08830253,0.0001296,53.2183,74.1073,95.3165,264.7975,-0.00015548,-2.761e-05,0.0,0 STARLINK-5054,1 53906U 22119W   23015.18675485 -.00002761  00000-0 -15548-3 0  9997,2 53906  53.2183  74.1073 0001296  95.3165 264.7975 15.08830253 17874,6917.91,95.438,540.672,538.879,0.0
53906.0,STARLINK-5054,PAYLOAD,2023-01-15 10:50:27,15.08841168,7.06e-05,53.2183,72.9166,80.1752,279.932,-4.3563e-05,-9.81e-06,0.0,0 STARLINK-5054,1 53906U 22119W   23015.45170446 -.00000981  00000-0 -43563-4 0  9995,2 53906  53.2183  72.9166 0000706  80.1752 279.9320 15.08841168 17916,6917.877,95.437,540.23,539.253,0.0
53906.0,STARLINK-5054,PAYLOAD,2023-01-15 20:22:46,15.08840752,0.0001449,53.2183,71.1328,98.5533,261.5623,-6.6209e-07,-2.98e-06,0.0,0 STARLINK-5054,1 53906U 22119W   23015.84914396 -.00000298  00000-0 -66209-6 0  9993,2 53906  53.2183  71.1328 0001449  98.5533 261.5623 15.08840752 18396,6917.878000000001,95.438,540.745,538.741,0.0
53906.0,STARLINK-5054,PAYLOAD,2023-01-16 10:41:12,15.0885839,9.78e-05,53.2187,68.4573,98.2237,261.8866,0.00018529,2.664e-05,0.0,0 STARLINK-5054,1 53906U 22119W   23016.44528540  .00002664  00000-0  18529-3 0  9998,2 53906  53.2187  68.4573 0000978  98.2237 261.8866 15.08858390 18068,6917.8240000000005,95.436,540.366,539.013,0.0
53906.0,STARLINK-5054,PAYLOAD,2023-01-16 12:16:35,15.08859673,0.0001025,53.218,68.1595,96.3886,263.7223,0.00019496,2.818e-05,0.0,0 STARLINK-5054,1 53906U 22119W   23016.51152370  .00002818  00000-0  19496-3 0  9995,2 53906  53.2180  68.1595 0001025  96.3886 263.7223 15.08859673 18495,6917.82,95.436,540.394,538.976,0.0
53906.0,STARLINK-5054,PAYLOAD,2023-01-17 02:35:06,15.08818617,0.0001450999999999,53.2181,65.484,95.6247,264.4911,2.1739e-05,5.8e-07,0.0,0 STARLINK-5054,1 53906U 22119W   23017.10771893  .00000058  00000-0  21739-4 0  9996,2 53906  53.2181  65.4840 0001451  95.6247 264.4911 15.08818617 18164,6917.946,95.439,540.815,538.807,0.0
53906.0,STARLINK-5054,PAYLOAD,2023-01-18 04:01:17,15.088282500000002,0.0001249,53.2185,60.7257,110.0794,250.0333,-7.395e-05,-1.464e-05,0.0,0 STARLINK-5054,1 53906U 22119W   23018.16756360 -.00001464  00000-0 -73950-4 0  9991,2 53906  53.2185  60.7257 0001249 110.0794 250.0333 15.08828250 18323,6917.916,95.438,540.645,538.9169999999999,0.0
53906.0,STARLINK-5054,PAYLOAD,2023-01-18 10:22:48,15.08855342,9e-05,53.2187,59.535,77.8995,282.2098,0.00013828,1.915e-05,0.0,0 STARLINK-5054,1 53906U 22119W   23018.43250164  .00001915  00000-0  13828-3 0  9998,2 53906  53.2187  59.5350 0000900  77.8995 282.2098 15.08855342 18362,6917.8330000000005,95.437,540.321,539.076,0.0
53906.0,STARLINK-5054,PAYLOAD,2023-01-18 19:55:06,15.08858847,0.0001203,53.2195,57.7536,76.2407,283.8719,2.6434e-05,1.33e-06,0.0,0 STARLINK-5054,1 53906U 22119W   23018.82994078  .00000133  00000-0  26434-4 0  9999,2 53906  53.2195  57.7536 0001203  76.2407 283.8719 15.08858847 18848,6917.823,95.436,540.52,538.856,0.0
53906.0,STARLINK-5054,PAYLOAD,2023-01-19 02:16:40,15.0883336,0.0001171999999999,53.2203,56.5648,83.9359,276.1767,0.00012327,1.674e-05,0.0,0 STARLINK-5054,1 53906U 22119W   23019.09491293  .00001674  00000-0  12327-3 0  9996,2 53906  53.2203  56.5648 0001172  83.9359 276.1767 15.08833360 18464,6917.901,95.438,540.576,538.955,0.0
53906.0,STARLINK-5054,PAYLOAD,2023-01-19 08:38:11,15.08848881,9.23e-05,53.2205,55.3756,349.1263,10.9709,0.00023304,3.424e-05,0.0,0 STARLINK-5054,1 53906U 22119W   23019.35985975  .00003424  00000-0  23304-3 0  9992,2 53906  53.2205  55.3756 0000923 349.1263  10.9709 15.08848881 18506,6917.853,95.437,540.357,539.08,0.0
53906.0,STARLINK-5054,PAYLOAD,2023-01-19 11:48:57,15.08854694,0.0001484,53.2189,54.7774,102.3764,257.7395,0.00027729,4.13e-05,0.0,0 STARLINK-5054,1 53906U 22119W   23019.49233281  .00004130  00000-0  27729-3 0  9993,2 53906  53.2189  54.7774 0001484 102.3764 257.7395 15.08854694 18947,6917.835,95.437,540.727,538.674,0.0
53906.0,STARLINK-5054,PAYLOAD,2023-01-19 19:45:54,15.08850168,0.0001010999999999,53.2191,53.2918,83.9051,276.2056,-7.6667e-05,-1.508e-05,0.0,0 STARLINK-5054,1 53906U 22119W   23019.82355043 -.00001508  00000-0 -76667-4 0  9995,2 53906  53.2191  53.2918 0001011  83.9051 276.2056 15.08850168 18574,6917.849,95.437,540.414,539.015,0.0
53906.0,STARLINK-5054,PAYLOAD,2023-01-20 02:07:28,15.08836054,0.0001209,53.219,52.1023,88.2986,271.8144,-0.00018507,-3.232e-05,0.0,0 STARLINK-5054,1 53906U 22119W   23020.08852234 -.00003232  00000-0 -18507-3 0  9993,2 53906  53.2190  52.1023 0001209  88.2986 271.8144 15.08836054 18614,6917.892,95.438,540.594,538.9209999999999,0.0
53906.0,STARLINK-5054,PAYLOAD,2023-01-20 11:39:46,15.08848238,0.000152,53.2191,50.3171,99.3231,260.7933,-7.8352e-05,-1.535e-05,0.0,0 STARLINK-5054,1 53906U 22119W   23020.48595029 -.00001535  00000-0 -78352-4 0  9992,2 53906  53.2191  50.3171 0001520  99.3231 260.7933 15.08848238 18677,6917.855,95.437,540.7719999999999,538.669,0.0
53906.0,STARLINK-5054,PAYLOAD,2023-01-21 01:58:14,15.08831547,0.0001198,53.2181,47.6399,100.1773,259.9354,-4.8597e-05,-1.061e-05,0.0,0 STARLINK-5054,1 53906U 22119W   23021.08211724 -.00001061  00000-0 -48597-4 0  9998,2 53906  53.2181  47.6399 0001198 100.1773 259.9354 15.08831547 18762,6917.906,95.438,540.6,538.942,0.0
53906.0,STARLINK-5054,PAYLOAD,2023-01-21 08:19:46,15.08844146,0.0001315999999999,53.2174,46.4528,86.1304,273.9839,-4.0604e-05,-9.34e-06,0.0,0 STARLINK-5054,1 53906U 22119W   23021.34707023 -.00000934  00000-0 -40604-4 0  9998,2 53906  53.2174  46.4528 0001316  86.1304 273.9839 15.08844146 18808,6917.868,95.437,540.643,538.822,0.0
53906.0,STARLINK-5054,PAYLOAD,2023-01-22 11:21:19,15.08850651,0.0001198,53.2188,41.3967,93.7577,266.3552,0.0001399,1.94e-05,0.0,0 STARLINK-5054,1 53906U 22119W   23022.47313973  .00001940  00000-0  13990-3 0  9993,2 53906  53.2188  41.3967 0001198  93.7577 266.3552 15.08850651 18972,6917.848000000001,95.437,540.5419999999999,538.884,0.0
53906.0,STARLINK-5054,PAYLOAD,2023-01-22 17:42:53,15.08830963,0.0001373,53.2193,40.2051,97.5892,262.5256,-1.6680000000000002e-06,-3.14e-06,0.0,0 STARLINK-5054,1 53906U 22119W   23022.73811622 -.00000314  00000-0 -16680-5 0  9993,2 53906  53.2193  40.2051 0001373  97.5892 262.5256 15.08830963 19016,6917.908,95.438,540.7230000000001,538.823,0.0
53906.0,STARLINK-5054,PAYLOAD,2023-01-23 01:39:49,15.08825529,0.0001413,53.2185,38.7197,107.2996,252.8151,-6.9148e-05,-1.388e-05,0.0,0 STARLINK-5054,1 53906U 22119W   23023.06932508 -.00001388  00000-0 -69148-4 0  9995,2 53906  53.2185  38.7197 0001413 107.2996 252.8151 15.08825529 19062,6917.925,95.438,540.7669999999999,538.812,0.0
53906.0,STARLINK-5054,PAYLOAD,2023-01-23 17:33:40,15.08836605,0.000124,53.2194,35.7489,101.2328,258.8803,-2.2526e-05,-6.46e-06,0.0,0 STARLINK-5054,1 53906U 22119W   23023.73171961 -.00000646  00000-0 -22526-4 0  9992,2 53906  53.2194  35.7489 0001240 101.2328 258.8803 15.08836605 19162,6917.891,95.438,540.614,538.898,0.0
53906.0,STARLINK-5054,PAYLOAD,2023-01-24 09:27:31,15.08843178,0.0001424,53.2193,32.7789,126.395,233.7174,1.1589e-05,-1.03e-06,0.0,0 STARLINK-5054,1 53906U 22119W   23024.39411704 -.00000103  00000-0  11589-4 0  9991,2 53906  53.2193  32.7789 0001424 126.3950 233.7174 15.08843178 19261,6917.871,95.437,540.721,538.751,0.0
53906.0,STARLINK-5054,PAYLOAD,2023-01-24 22:10:37,15.088302800000005,0.0001171,53.2189,30.3968,110.3862,249.7256,0.00013972,1.936e-05,0.0,0 STARLINK-5054,1 53906U 22119W   23024.92404170  .00001936  00000-0  13972-3 0  9990,2 53906  53.2189  30.3968 0001171 110.3862 249.7256 15.08830280 19340,6917.91,95.438,540.585,538.965,0.0
53906.0,STARLINK-5054,PAYLOAD,2023-01-25 07:42:55,15.08838785,0.0001174,53.2188,28.6107,102.9124,257.2,7.9205e-05,9.73e-06,0.0,0 STARLINK-5054,1 53906U 22119W   23025.32148061  .00000973  00000-0  79205-4 0  9991,2 53906  53.2188  28.6107 0001174 102.9124 257.2000 15.08838785 19827,6917.884,95.438,540.561,538.937,0.0
53906.0,STARLINK-5054,PAYLOAD,2023-01-25 17:15:14,15.08839584,0.0001066999999999,53.2185,26.8278,90.8387,269.2728,1.9511e-05,2.3e-07,0.0,0 STARLINK-5054,1 53906U 22119W   23025.71892269  .00000023  00000-0  19511-4 0  9990,2 53906  53.2185  26.8278 0001067  90.8387 269.2728 15.08839584 19884,6917.882,95.438,540.485,539.009,0.0
